<?xml version="1.0" encoding="UTF-8"?>
<ndm xmlns:xsi="http://www.w3.org/2001/XMLSchema-instance" xsi:noNamespaceSchemaLocation="https://sanaregistry.org/r/ndmxml_unqualified/ndmxml-2.0.0-master-2.0.xsd">
<omm id="CCSDS_OMM_VERS" version="2.0">
<header><CREATION_DATE/><ORIGINATOR/></header><body><segment><metadata><OBJECT_NAME>KUIPER-00061</OBJECT_NAME><OBJECT_ID>2025-134X</OBJECT_ID><CENTER_NAME>EARTH</CENTER_NAME><REF_FRAME>TEME</REF_FRAME><TIME_SYSTEM>UTC</TIME_SYSTEM><MEAN_ELEMENT_THEORY>SGP4</MEAN_ELEMENT_THEORY></metadata><data><meanElements><EPOCH>2025-09-19T06:00:02.000160</EPOCH><MEAN_MOTION>15.13347951</MEAN_MOTION><ECCENTRICITY>.00084985</ECCENTRICITY><INCLINATION>51.8922</INCLINATION><RA_OF_ASC_NODE>269.2447</RA_OF_ASC_NODE><ARG_OF_PERICENTER>60.5496</ARG_OF_PERICENTER><MEAN_ANOMALY>223.3888</MEAN_ANOMALY></meanElements><tleParameters><EPHEMERIS_TYPE>0</EPHEMERIS_TYPE><CLASSIFICATION_TYPE>U</CLASSIFICATION_TYPE><NORAD_CAT_ID>64521</NORAD_CAT_ID><ELEMENT_SET_NO>999</ELEMENT_SET_NO><REV_AT_EPOCH>531</REV_AT_EPOCH><BSTAR>-.1844453E-2</BSTAR><MEAN_MOTION_DOT>-.3347E-3</MEAN_MOTION_DOT><MEAN_MOTION_DDOT>0</MEAN_MOTION_DDOT></tleParameters></data></segment></body></omm>
<omm id="CCSDS_OMM_VERS" version="2.0">
<header><CREATION_DATE/><ORIGINATOR/></header><body><segment><metadata><OBJECT_NAME>KUIPER-00062</OBJECT_NAME><OBJECT_ID>2025-134Y</OBJECT_ID><CENTER_NAME>EARTH</CENTER_NAME><REF_FRAME>TEME</REF_FRAME><TIME_SYSTEM>UTC</TIME_SYSTEM><MEAN_ELEMENT_THEORY>SGP4</MEAN_ELEMENT_THEORY></metadata><data><meanElements><EPOCH>2025-09-18T08:20:29.095008</EPOCH><MEAN_MOTION>15.07114900</MEAN_MOTION><ECCENTRICITY>.00108267</ECCENTRICITY><INCLINATION>51.8847</INCLINATION><RA_OF_ASC_NODE>279.5044</RA_OF_ASC_NODE><ARG_OF_PERICENTER>71.9236</ARG_OF_PERICENTER><MEAN_ANOMALY>288.2917</MEAN_ANOMALY></meanElements><tleParameters><EPHEMERIS_TYPE>0</EPHEMERIS_TYPE><CLASSIFICATION_TYPE>U</CLASSIFICATION_TYPE><NORAD_CAT_ID>64522</NORAD_CAT_ID><ELEMENT_SET_NO>999</ELEMENT_SET_NO><REV_AT_EPOCH>1449</REV_AT_EPOCH><BSTAR>.52020216E-3</BSTAR><MEAN_MOTION_DOT>.7636E-4</MEAN_MOTION_DOT><MEAN_MOTION_DDOT>0</MEAN_MOTION_DDOT></tleParameters></data></segment></body></omm>
<omm id="CCSDS_OMM_VERS" version="2.0">
<header><CREATION_DATE/><ORIGINATOR/></header><body><segment><metadata><OBJECT_NAME>KUIPER-00063</OBJECT_NAME><OBJECT_ID>2025-134Z</OBJECT_ID><CENTER_NAME>EARTH</CENTER_NAME><REF_FRAME>TEME</REF_FRAME><TIME_SYSTEM>UTC</TIME_SYSTEM><MEAN_ELEMENT_THEORY>SGP4</MEAN_ELEMENT_THEORY></metadata><data><meanElements><EPOCH>2025-09-19T06:00:02.000160</EPOCH><MEAN_MOTION>14.79615983</MEAN_MOTION><ECCENTRICITY>.00043131</ECCENTRICITY><INCLINATION>51.9004</INCLINATION><RA_OF_ASC_NODE>276.0598</RA_OF_ASC_NODE><ARG_OF_PERICENTER>34.0544</ARG_OF_PERICENTER><MEAN_ANOMALY>110.3154</MEAN_ANOMALY></meanElements><tleParameters><EPHEMERIS_TYPE>0</EPHEMERIS_TYPE><CLASSIFICATION_TYPE>U</CLASSIFICATION_TYPE><NORAD_CAT_ID>64523</NORAD_CAT_ID><ELEMENT_SET_NO>999</ELEMENT_SET_NO><REV_AT_EPOCH>535</REV_AT_EPOCH><BSTAR>-.35174832E-2</BSTAR><MEAN_MOTION_DOT>-.26734E-3</MEAN_MOTION_DOT><MEAN_MOTION_DDOT>0</MEAN_MOTION_DDOT></tleParameters></data></segment></body></omm>
<omm id="CCSDS_OMM_VERS" version="2.0">
<header><CREATION_DATE/><ORIGINATOR/></header><body><segment><metadata><OBJECT_NAME>KUIPER-00064</OBJECT_NAME><OBJECT_ID>2025-134AA</OBJECT_ID><CENTER_NAME>EARTH</CENTER_NAME><REF_FRAME>TEME</REF_FRAME><TIME_SYSTEM>UTC</TIME_SYSTEM><MEAN_ELEMENT_THEORY>SGP4</MEAN_ELEMENT_THEORY></metadata><data><meanElements><EPOCH>2025-09-19T06:00:02.000160</EPOCH><MEAN_MOTION>14.90722370</MEAN_MOTION><ECCENTRICITY>.00064545</ECCENTRICITY><INCLINATION>51.9103</INCLINATION><RA_OF_ASC_NODE>273.4324</RA_OF_ASC_NODE><ARG_OF_PERICENTER>134.4893</ARG_OF_PERICENTER><MEAN_ANOMALY>349.2244</MEAN_ANOMALY></meanElements><tleParameters><EPHEMERIS_TYPE>0</EPHEMERIS_TYPE><CLASSIFICATION_TYPE>U</CLASSIFICATION_TYPE><NORAD_CAT_ID>64524</NORAD_CAT_ID><ELEMENT_SET_NO>999</ELEMENT_SET_NO><REV_AT_EPOCH>547</REV_AT_EPOCH><BSTAR>-.53850416E-1</BSTAR><MEAN_MOTION_DOT>-.502826E-2</MEAN_MOTION_DOT><MEAN_MOTION_DDOT>0</MEAN_MOTION_DDOT></tleParameters></data></segment></body></omm>
<omm id="CCSDS_OMM_VERS" version="2.0">
<header><CREATION_DATE/><ORIGINATOR/></header><body><segment><metadata><OBJECT_NAME>KUIPER-00065</OBJECT_NAME><OBJECT_ID>2025-134AB</OBJECT_ID><CENTER_NAME>EARTH</CENTER_NAME><REF_FRAME>TEME</REF_FRAME><TIME_SYSTEM>UTC</TIME_SYSTEM><MEAN_ELEMENT_THEORY>SGP4</MEAN_ELEMENT_THEORY></metadata><data><meanElements><EPOCH>2025-09-19T06:00:02.000160</EPOCH><MEAN_MOTION>14.79803400</MEAN_MOTION><ECCENTRICITY>.00117628</ECCENTRICITY><INCLINATION>51.8994</INCLINATION><RA_OF_ASC_NODE>278.3005</RA_OF_ASC_NODE><ARG_OF_PERICENTER>76.6217</ARG_OF_PERICENTER><MEAN_ANOMALY>256.6364</MEAN_ANOMALY></meanElements><tleParameters><EPHEMERIS_TYPE>0</EPHEMERIS_TYPE><CLASSIFICATION_TYPE>U</CLASSIFICATION_TYPE><NORAD_CAT_ID>64525</NORAD_CAT_ID><ELEMENT_SET_NO>999</ELEMENT_SET_NO><REV_AT_EPOCH>582</REV_AT_EPOCH><BSTAR>-.34207365E-2</BSTAR><MEAN_MOTION_DOT>-.26152E-3</MEAN_MOTION_DOT><MEAN_MOTION_DDOT>0</MEAN_MOTION_DDOT></tleParameters></data></segment></body></omm>
<omm id="CCSDS_OMM_VERS" version="2.0">
<header><CREATION_DATE/><ORIGINATOR/></header><body><segment><metadata><OBJECT_NAME>KUIPER-00066</OBJECT_NAME><OBJECT_ID>2025-134AC</OBJECT_ID><CENTER_NAME>EARTH</CENTER_NAME><REF_FRAME>TEME</REF_FRAME><TIME_SYSTEM>UTC</TIME_SYSTEM><MEAN_ELEMENT_THEORY>SGP4</MEAN_ELEMENT_THEORY></metadata><data><meanElements><EPOCH>2025-09-19T07:03:57.271104</EPOCH><MEAN_MOTION>15.18142538</MEAN_MOTION><ECCENTRICITY>.00068145</ECCENTRICITY><INCLINATION>51.8836</INCLINATION><RA_OF_ASC_NODE>271.5903</RA_OF_ASC_NODE><ARG_OF_PERICENTER>60.6883</ARG_OF_PERICENTER><MEAN_ANOMALY>299.4776</MEAN_ANOMALY></meanElements><tleParameters><EPHEMERIS_TYPE>0</EPHEMERIS_TYPE><CLASSIFICATION_TYPE>U</CLASSIFICATION_TYPE><NORAD_CAT_ID>64526</NORAD_CAT_ID><ELEMENT_SET_NO>999</ELEMENT_SET_NO><REV_AT_EPOCH>1468</REV_AT_EPOCH><BSTAR>.76224932E-3</BSTAR><MEAN_MOTION_DOT>.15488E-3</MEAN_MOTION_DOT><MEAN_MOTION_DDOT>0</MEAN_MOTION_DDOT></tleParameters></data></segment></body></omm>
<omm id="CCSDS_OMM_VERS" version="2.0">
<header><CREATION_DATE/><ORIGINATOR/></header><body><segment><metadata><OBJECT_NAME>KUIPER-00069</OBJECT_NAME><OBJECT_ID>2025-151A</OBJECT_ID><CENTER_NAME>EARTH</CENTER_NAME><REF_FRAME>TEME</REF_FRAME><TIME_SYSTEM>UTC</TIME_SYSTEM><MEAN_ELEMENT_THEORY>SGP4</MEAN_ELEMENT_THEORY></metadata><data><meanElements><EPOCH>2025-09-18T20:43:15.832416</EPOCH><MEAN_MOTION>15.37238936</MEAN_MOTION><ECCENTRICITY>.00081081</ECCENTRICITY><INCLINATION>51.8809</INCLINATION><RA_OF_ASC_NODE>335.8227</RA_OF_ASC_NODE><ARG_OF_PERICENTER>15.3890</ARG_OF_PERICENTER><MEAN_ANOMALY>344.7342</MEAN_ANOMALY></meanElements><tleParameters><EPHEMERIS_TYPE>0</EPHEMERIS_TYPE><CLASSIFICATION_TYPE>U</CLASSIFICATION_TYPE><NORAD_CAT_ID>64816</NORAD_CAT_ID><ELEMENT_SET_NO>999</ELEMENT_SET_NO><REV_AT_EPOCH>1110</REV_AT_EPOCH><BSTAR>.12438388E-2</BSTAR><MEAN_MOTION_DOT>.46009E-3</MEAN_MOTION_DOT><MEAN_MOTION_DDOT>0</MEAN_MOTION_DDOT></tleParameters></data></segment></body></omm>
<omm id="CCSDS_OMM_VERS" version="2.0">
<header><CREATION_DATE/><ORIGINATOR/></header><body><segment><metadata><OBJECT_NAME>KUIPER-00070</OBJECT_NAME><OBJECT_ID>2025-151B</OBJECT_ID><CENTER_NAME>EARTH</CENTER_NAME><REF_FRAME>TEME</REF_FRAME><TIME_SYSTEM>UTC</TIME_SYSTEM><MEAN_ELEMENT_THEORY>SGP4</MEAN_ELEMENT_THEORY></metadata><data><meanElements><EPOCH>2025-09-19T06:00:02.000160</EPOCH><MEAN_MOTION>14.79749347</MEAN_MOTION><ECCENTRICITY>.00089347</ECCENTRICITY><INCLINATION>51.9000</INCLINATION><RA_OF_ASC_NODE>343.5871</RA_OF_ASC_NODE><ARG_OF_PERICENTER>52.6158</ARG_OF_PERICENTER><MEAN_ANOMALY>285.8802</MEAN_ANOMALY></meanElements><tleParameters><EPHEMERIS_TYPE>0</EPHEMERIS_TYPE><CLASSIFICATION_TYPE>U</CLASSIFICATION_TYPE><NORAD_CAT_ID>64817</NORAD_CAT_ID><ELEMENT_SET_NO>999</ELEMENT_SET_NO><REV_AT_EPOCH>490</REV_AT_EPOCH><BSTAR>.92109063E-3</BSTAR><MEAN_MOTION_DOT>.678E-4</MEAN_MOTION_DOT><MEAN_MOTION_DDOT>0</MEAN_MOTION_DDOT></tleParameters></data></segment></body></omm>

</ndm>
