KUIPER-00061            
1 64521U 25134X   25262.25002315 -.00033470  00000+0 -18445-2 0  9990
2 64521  51.8922 269.2447 0008498  60.5496 223.3888 15.13347951  5312
KUIPER-00062            
1 64522U 25134Y   25261.34755897  .00007636  00000+0  52020-3 0  9991
2 64522  51.8847 279.5044 0010826  71.9236 288.2917 15.07114900 14493
KUIPER-00063            
1 64523U 25134Z   25262.25002315 -.00026734  00000+0 -35175-2 0  9996
2 64523  51.9004 276.0598 0004313  34.0544 110.3154 14.79615983  5350
KUIPER-00064            
1 64524U 25134AA  25262.25002315 -.00502826  00000+0 -53850-1 0  9997
2 64524  51.9103 273.4324 0006454 134.4893 349.2244 14.90722370  5477
KUIPER-00065            
1 64525U 25134AB  25262.25002315 -.00026152  00000+0 -34207-2 0  9997
2 64525  51.8994 278.3005 0011762  76.6217 256.6364 14.79803400  5824
KUIPER-00066            
1 64526U 25134AC  25262.29441286  .00015488  00000+0  76225-3 0  9991
2 64526  51.8836 271.5903 0006814  60.6883 299.4776 15.18142538 14684
KUIPER-00069            
1 64816U 25151A   25261.86337769  .00046009  00000+0  12438-2 0  9992
2 64816  51.8809 335.8227 0008108  15.3890 344.7342 15.37238936 11108
KUIPER-00070            
1 64817U 25151B   25262.25002315  .00006780  00000+0  92109-3 0  9999
2 64817  51.9000 343.5871 0008934  52.6158 285.8802 14.79749347  4906
